NORAD_CAT_ID,OBJECT_NAME,OBJECT_TYPE,EPOCH,MEAN_MOTION,ECCENTRICITY,INCLINATION,RA_OF_ASC_NODE,ARG_OF_PERICENTER,MEAN_ANOMALY,BSTAR,MEAN_MOTION_DOT,MEAN_MOTION_DDOT,TLE_LINE0,TLE_LINE1,TLE_LINE2,SEMIMAJOR_AXIS,PERIOD,APOGEE,PERIGEE,DECAYED
50836.0,STARLINK-3330,PAYLOAD,2022-12-16 23:07:17,15.08839139,0.0002141,53.2176,70.6447,33.7466,326.3662,5.925e-05,6.55e-06,0.0,0 STARLINK-3330,1 50836U 22001AK  22350.96339725  .00000655  00000-0  59250-4 0  9994,2 50836  53.2176  70.6447 0002141  33.7466 326.3662 15.08839139 53578,6917.8830000000025,95.438,541.229,538.2669999999998,0.0
50836.0,STARLINK-3330,PAYLOAD,2022-12-17 11:50:22,15.08835922,0.0002081,53.2174,68.2649,36.6731,323.4404,0.00010962,1.457e-05,0.0,0 STARLINK-3330,1 50836U 22001AK  22351.49331826  .00001457  00000-0  10962-3 0  9994,2 50836  53.2174  68.2649 0002081  36.6731 323.4404 15.08835922 52299,6917.893,95.438,541.197,538.318,0.0
50836.0,STARLINK-3330,PAYLOAD,2022-12-17 16:36:32,15.08839583,0.0002157,53.2181,67.3719,38.6151,321.4995,8.4051e-05,1.05e-05,0.0,0 STARLINK-3330,1 50836U 22001AK  22351.69203735  .00001050  00000-0  84051-4 0  9993,2 50836  53.2181  67.3719 0002157  38.6151 321.4995 15.08839583 52321,6917.882,95.438,541.239,538.254,0.0
50836.0,STARLINK-3330,PAYLOAD,2022-12-18 05:19:37,15.08841109,0.0002336,53.2169,64.9935,42.2725,317.8447,-2.1285e-05,-6.27e-06,0.0,0 STARLINK-3330,1 50836U 22001AK  22352.22195980 -.00000627  00000-0 -21285-4 0  9996,2 50836  53.2169  64.9935 0002336  42.2725 317.8447 15.08841109 53764,6917.877,95.437,541.3580000000002,538.126,0.0
50836.0,STARLINK-3330,PAYLOAD,2022-12-18 13:16:33,15.08834335,0.0002195,53.2174,63.5066,35.9046,324.2093,-7.5894e-05,-1.496e-05,0.0,0 STARLINK-3330,1 50836U 22001AK  22352.55316583 -.00001496  00000-0 -75894-4 0  9996,2 50836  53.2174  63.5066 0002195  35.9046 324.2093 15.08834335 52455,6917.898,95.438,541.281,538.244,0.0
50836.0,STARLINK-3330,PAYLOAD,2022-12-18 14:51:56,15.08835109,0.000219,53.2174,63.2092,35.4875,324.6262,-8.534100000000001e-05,-1.646e-05,0.0,0 STARLINK-3330,1 50836U 22001AK  22352.61940567 -.00001646  00000-0 -85341-4 0  9993,2 50836  53.2174  63.2092 0002190  35.4875 324.6262 15.08835109 52464,6917.895,95.438,541.275,538.245,0.0
50836.0,STARLINK-3330,PAYLOAD,2022-12-19 05:10:24,15.08841264,0.0002246,53.2173,60.5329,35.4401,324.6740000000001,-4.7017e-05,-1.037e-05,0.0,0 STARLINK-3330,1 50836U 22001AK  22353.21556266 -.00001037  00000-0 -47017-4 0  9991,2 50836  53.2173  60.5329 0002246  35.4401 324.6740 15.08841264 53914,6917.877,95.437,541.295,538.188,0.0
50836.0,STARLINK-3330,PAYLOAD,2022-12-19 16:18:06,15.08846686,0.0002239,53.2183,58.4514,31.6208,328.4919,9.6677e-05,1.251e-05,0.0,0 STARLINK-3330,1 50836U 22001AK  22353.67923643  .00001251  00000-0  96677-4 0  9990,2 50836  53.2183  58.4514 0002239  31.6208 328.4919 15.08846686 52622,6917.86,95.437,541.274,538.1759999999998,0.0
50836.0,STARLINK-3330,PAYLOAD,2022-12-19 21:04:14,15.08855325,0.0002273,53.2181,57.5596,31.4394,328.6733,0.00014195,1.973e-05,0.0,0 STARLINK-3330,1 50836U 22001AK  22353.87794845  .00001973  00000-0  14195-3 0  9997,2 50836  53.2181  57.5596 0002273  31.4394 328.6733 15.08855325 54013,6917.834,95.437,541.271,538.126,0.0
50836.0,STARLINK-3330,PAYLOAD,2022-12-20 11:22:43,15.08848571,0.0002141,53.2186,54.8833,31.7061,328.406,0.00013254,1.822e-05,0.0,0 STARLINK-3330,1 50836U 22001AK  22354.47411234  .00001822  00000-0  13254-3 0  9990,2 50836  53.2186  54.8833 0002141  31.7061 328.4060 15.08848571 54106,6917.854,95.437,541.2,538.238,0.0
50836.0,STARLINK-3330,PAYLOAD,2022-12-20 22:30:24,15.08855914,0.0002279,53.2181,52.8011,30.1299,329.9824,0.0002445,3.607e-05,0.0,0 STARLINK-3330,1 50836U 22001AK  22354.93778182  .00003607  00000-0  24450-3 0  9992,2 50836  53.2181  52.8011 0002279  30.1299 329.9824 15.08855914 54175,6917.831999999999,95.437,541.273,538.12,0.0
50836.0,STARLINK-3330,PAYLOAD,2022-12-21 12:48:53,15.0883666,0.000232,53.2174,50.1229,26.5994,333.5117,-0.00016745,-2.952e-05,0.0,0 STARLINK-3330,1 50836U 22001AK  22355.53395249 -.00002952  00000-0 -16745-3 0  9990,2 50836  53.2174  50.1229 0002320  26.5994 333.5117 15.08836660 54260,6917.891,95.438,541.361,538.151,0.0
50836.0,STARLINK-3330,PAYLOAD,2022-12-22 12:39:41,15.08839588,0.0002248,53.2184,45.6631,26.5374,333.5733,-6.5182e-05,-1.326e-05,0.0,0 STARLINK-3330,1 50836U 22001AK  22356.52755828 -.00001326  00000-0 -65182-4 0  9997,2 50836  53.2184  45.6631 0002248  26.5374 333.5733 15.08839588 53050,6917.882,95.438,541.302,538.192,0.0
50836.0,STARLINK-3330,PAYLOAD,2022-12-22 15:50:27,15.08842311,0.0002359,53.2179,45.0695,30.1405,329.9723,-3.9652e-05,-9.19e-06,0.0,0 STARLINK-3330,1 50836U 22001AK  22356.66003679 -.00000919  00000-0 -39652-4 0  9992,2 50836  53.2179  45.0695 0002359  30.1405 329.9723 15.08842311 54436,6917.873000000001,95.437,541.37,538.106,0.0
50836.0,STARLINK-3330,PAYLOAD,2022-12-23 10:55:05,15.08831597,0.0002381,53.2185,41.5008,28.9886,331.1238,0.00014237,1.978e-05,0.0,0 STARLINK-3330,1 50836U 22001AK  22357.45492086  .00001978  00000-0  14237-3 0  9999,2 50836  53.2185  41.5008 0002381  28.9886 331.1238 15.08831597 54558,6917.906,95.438,541.418,538.124,0.0
50836.0,STARLINK-3330,PAYLOAD,2022-12-23 15:41:15,15.08824927,0.0002417,53.218,40.6102,31.4248,328.6888,0.0001012,1.322e-05,0.0,0 STARLINK-3330,1 50836U 22001AK  22357.65364758  .00001322  00000-0  10120-3 0  9995,2 50836  53.2180  40.6102 0002417  31.4248 328.6888 15.08824927 53223,6917.926,95.439,541.464,538.119,0.0
50836.0,STARLINK-3330,PAYLOAD,2022-12-24 09:10:29,15.08838334,0.0002327,53.2183,37.3386,31.5604,328.5527,0.00011827,1.594e-05,0.0,0 STARLINK-3330,1 50836U 22001AK  22358.38228444  .00001594  00000-0  11827-3 0  9993,2 50836  53.2183  37.3386 0002327  31.5604 328.5527 15.08838334 54698,6917.885,95.438,541.36,538.141,0.0
50836.0,STARLINK-3330,PAYLOAD,2022-12-24 20:18:11,15.08837051,0.0002645,53.2175,35.2588,30.4702,329.6443,9.7059e-05,1.257e-05,0.0,0 STARLINK-3330,1 50836U 22001AK  22358.84596796  .00001257  00000-0  97059-4 0  9990,2 50836  53.2175  35.2588 0002645  30.4702 329.6443 15.08837051 53402,6917.889,95.438,541.5840000000002,537.925,0.0
50836.0,STARLINK-3330,PAYLOAD,2022-12-25 12:12:02,15.08839374,0.0002715,53.2179,32.2858,26.9633,333.15,7.1669e-05,8.52e-06,0.0,0 STARLINK-3330,1 50836U 22001AK  22359.50836789  .00000852  00000-0  71669-4 0  9992,2 50836  53.2179  32.2858 0002715  26.9633 333.1500 15.08839374 54869,6917.882,95.438,541.626,537.869,0.0
50836.0,STARLINK-3330,PAYLOAD,2022-12-25 13:47:26,15.08838727,0.0002699,53.2179,31.9881,27.401,332.7124,6.5245e-05,7.4999999999999985e-06,0.0,0 STARLINK-3330,1 50836U 22001AK  22359.57460862  .00000750  00000-0  65245-4 0  9994,2 50836  53.2179  31.9881 0002699  27.4010 332.7124 15.08838727 53516,6917.884,95.438,541.616,537.882,0.0
50836.0,STARLINK-3330,PAYLOAD,2022-12-26 02:30:31,15.08830316,0.0002698,53.2178,29.6092,28.3673,331.7466,5.9573e-05,6.6e-06,0.0,0 STARLINK-3330,1 50836U 22001AK  22360.10453610  .00000660  00000-0  59573-4 0  9995,2 50836  53.2178  29.6092 0002698  28.3673 331.7466 15.08830316 54950,6917.91,95.438,541.641,537.909,0.0
50836.0,STARLINK-3330,PAYLOAD,2022-12-26 12:02:50,15.08840081,0.0002671,53.2182,27.824,30.6793,329.4355,4.0515e-05,3.56e-06,0.0,0 STARLINK-3330,1 50836U 22001AK  22360.50197170  .00000356  00000-0  40515-4 0  9993,2 50836  53.2182  27.8240 0002671  30.6793 329.4355 15.08840081 53657,6917.88,95.438,541.5930000000002,537.8969999999998,0.0
50836.0,STARLINK-3330,PAYLOAD,2022-12-26 13:38:13,15.08838375,0.0002611,53.2184,27.5259,30.4059,329.7084,2.7719e-05,1.53e-06,0.0,0 STARLINK-3330,1 50836U 22001AK  22360.56821301  .00000153  00000-0  27719-4 0  9995,2 50836  53.2184  27.5259 0002611  30.4059 329.7084 15.08838375 55021,6917.885,95.438,541.557,537.944,0.0
50836.0,STARLINK-3330,PAYLOAD,2022-12-27 11:53:37,15.08841006,0.0002743,53.2184,23.3627,33.2282,326.8882,0.00012193,1.653e-05,0.0,0 STARLINK-3330,1 50836U 22001AK  22361.49557064  .00001653  00000-0  12193-3 0  9995,2 50836  53.2184  23.3627 0002743  33.2282 326.8882 15.08841006 53802,6917.877,95.437,541.64,537.845,0.0
50836.0,STARLINK-3330,PAYLOAD,2022-12-27 18:15:08,15.08852763,0.000274,53.2181,22.174,33.4387,326.6778,0.00021572,3.148e-05,0.0,0 STARLINK-3330,1 50836U 22001AK  22361.76052075  .00003148  00000-0  21572-3 0  9999,2 50836  53.2181  22.1740 0002740  33.4387 326.6778 15.08852763 53845,6917.840999999999,95.437,541.602,537.811,0.0
50836.0,STARLINK-3330,PAYLOAD,2022-12-28 00:36:41,15.08856038,0.0002833,53.2172,20.9848,32.7997,327.317,0.00031576,4.743e-05,0.0,0 STARLINK-3330,1 50836U 22001AK  22362.02548229  .00004743  00000-0  31576-3 0  9997,2 50836  53.2172  20.9848 0002833  32.7997 327.3170 15.08856038 53889,6917.831,95.437,541.656,537.737,0.0
50836.0,STARLINK-3330,PAYLOAD,2022-12-29 02:02:52,15.08837603,0.0002366,53.218,16.2245,17.5939,342.5134,8.653200000000002e-07,-2.75e-06,0.0,0 STARLINK-3330,1 50836U 22001AK  22363.08532960 -.00000275  00000-0  86532-6 0  9991,2 50836  53.2180  16.2245 0002366  17.5939 342.5134 15.08837603 55401,6917.888000000001,95.438,541.389,538.116,0.0
50836.0,STARLINK-3330,PAYLOAD,2022-12-29 11:35:12,15.08827479,0.0002989,53.2186,14.4431,30.8539,329.2628,-0.0002581,-4.393e-05,0.0,0 STARLINK-3330,1 50836U 22001AK  22363.48277844 -.00004393  00000-0 -25810-3 0  9997,2 50836  53.2186  14.4431 0002989  30.8539 329.2628 15.08827479 55465,6917.919,95.438,541.851,537.716,0.0
50836.0,STARLINK-3330,PAYLOAD,2022-12-29 17:56:45,15.088266099999998,0.0002663999999999,53.2176,13.2537,28.4691,331.6446,-0.00019127,-3.33e-05,0.0,0 STARLINK-3330,1 50836U 22001AK  22363.74775069 -.00003330  00000-0 -19127-3 0  9992,2 50836  53.2176  13.2537 0002664  28.4691 331.6446 15.08826610 55506,6917.920999999999,95.438,541.629,537.943,0.0
